IRIDIUM 155             
1 43573U 18061E   25301.54937940  .00000128  00000+0  38733-4 0  9998
2 43573  86.3983 153.5158 0001962  79.7483 280.3934 14.34218529380150
IRIDIUM 154             
1 43574U 18061F   25301.60012099  .00000091  00000+0  25260-4 0  9995
2 43574  86.3988 153.6165 0002086  86.8808 273.2627 14.34218186380219
IRIDIUM 163             
1 43575U 18061G   25301.58109347  .00000239  00000+0  78246-4 0  9992
2 43575  86.3988 153.5476 0002275  85.5899 274.5557 14.34218547380183
IRIDIUM 156             
1 43576U 18061H   25301.13711315  .00000260  00000+0  85738-4 0  9996
2 43576  86.3991 153.7387 0002249  72.1014 288.0427 14.34217501380111
IRIDIUM 164             
1 43577U 18061J   25301.53669479  .00000069  00000+0  17525-4 0  9990
2 43577  86.3987 153.6095 0001884  90.3590 269.7822 14.34217994380219
IRIDIUM 159             
1 43578U 18061K   25301.50498246  .00000042  00000+0  78842-5 0  9991
2 43578  86.3987 153.5646 0002161  89.1034 271.0409 14.34217843380174
IRIDIUM 180             
1 43922U 19002A   25301.50447518  .00000418  00000+0  14216-3 0  9996
2 43922  86.3928  90.4552 0002184  89.4633 270.6813 14.34220312355788
IRIDIUM 176             
1 43923U 19002B   25301.45706778  .00001566  00000+0  24438-3 0  9999
2 43923  86.6077  90.4561 0003907 112.9735 247.1895 14.72246841365154
IRIDIUM 168             
1 43924U 19002C   25301.49813543  .00000029  00000+0  33536-5 0  9997
2 43924  86.3929  90.5288 0002148  91.0339 269.1103 14.34217464355767
IRIDIUM 173             
1 43925U 19002D   25301.48545026  .00000220  00000+0  71548-4 0  9992
2 43925  86.3928  90.4324 0002162  87.5801 272.5643 14.34216841355740
IRIDIUM 169             
1 43926U 19002E   25301.49240770  .00000189  00000+0  55378-4 0  9999
2 43926  86.4198 122.0781 0002577  56.2078 303.9365 14.38608824356919
IRIDIUM 172             
1 43927U 19002F   25301.47910869  .00000398  00000+0  13500-3 0  9993
2 43927  86.3928  90.4423 0002274  93.3678 266.7778 14.34217925355752
IRIDIUM 175             
1 43928U 19002G   25301.31632528  .00001631  00000+0  25482-3 0  9993
2 43928  86.1559  35.4738 0001574 101.9839 258.1554 14.72240736365123
IRIDIUM 171             
1 43929U 19002H   25301.46007962  .00000268  00000+0  88641-4 0  9990
2 43929  86.3934  90.7309 0001779  93.8803 266.2596 14.34217403355744
IRIDIUM 170             
1 43930U 19002J   25301.46325098  .00001538  00000+0  23997-3 0  9998
2 43930  86.6053  90.4535 0002226  89.6219 270.5253 14.72252380365161
IRIDIUM 167             
1 43931U 19002K   25301.45373672  .00000389  00000+0  13169-3 0  9992
2 43931  86.3928  90.4731 0001641  86.2352 273.9032 14.34217895355744
IRIDIUM 181             
1 56726U 23068S   25301.54639094  .00000478  00000+0  13589-3 0  9993
2 56726  86.4526 153.6000 0001859 101.1879 258.9531 14.43318758129025
IRIDIUM 177             
1 56727U 23068T   25301.44907155  .00002314  00000+0  30110-3 0  9999
2 56727  86.1971  78.8427 0003992 111.0787 249.0862 14.80222366132084
IRIDIUM 174             
1 56728U 23068U   25301.45088364  .00001593  00000+0  24877-3 0  9994
2 56728  86.6057  90.5832 0002804  83.2362 276.9174 14.72253212131928
IRIDIUM 178             
1 56729U 23068V   25301.50575831  .00000466  00000+0  57900-4 0  9993
2 56729  86.6511 122.2031 0002025  83.1424 277.0028 14.80227776132095
IRIDIUM 179             
1 56730U 23068W   25301.50040050  .00000670  00000+0  84785-4 0  9993
2 56730  86.6764 130.4897 0001544  83.7044 276.4354 14.80240184132090
